{"type": "FeatureCollection", "features": [ {"type": "Feature", "properties": {"norad_id": 30892, "name": "FENGYUN 1C DEB", "group": "fengyun-1c-debris", "lat": -79.36856318280296, "lon": 56.850105253363004, "alt_km": 844.3333164766436, "timestamp": "2025-12-23T20:42:37.355305+00:00", "meta": {"OBJECT_NAME": "FENGYUN 1C DEB", "OBJECT_ID": "1999-025AYE", "EPOCH": "2025-12-13T14:04:34.549536", "MEAN_MOTION": 14.18924802, "ECCENTRICITY": 0.00379168, "INCLINATION": 99.663, "RA_OF_ASC_NODE": 290.842, "ARG_OF_PERICENTER": 186.6804, "MEAN_ANOMALY": 173.3868, "EPHEMERIS_TYPE": 0, "CLASSIFICATION_TYPE": "U", "NORAD_CAT_ID": 30892, "ELEMENT_SET_NO": 999, "REV_AT_EPOCH": 64315, "BSTAR": 0.00057005886, "MEAN_MOTION_DOT": 1.145e-05, "MEAN_MOTION_DDOT": 0}, "tle": {"line1": "1 30892U 99025AYE 25347.58651099  .00001145  00000+0  57006-3 0  9992", "line2": "2 30892  99.6630 290.8420 0037916 186.6804 173.3868 14.18924802643155"}}, "geometry": {"type": "Point", "coordinates": [56.850105253363004, -79.36856318280296]}}, {"type": "Feature", "properties": {"norad_id": 30893, "name": "FENGYUN 1C DEB", "group": "fengyun-1c-debris", "lat": 68.24595296240776, "lon": 2.5335685595582365, "alt_km": 684.2637745890779, "timestamp": "2025-12-23T20:42:37.355315+00:00", "meta": {"OBJECT_NAME": "FENGYUN 1C DEB", "OBJECT_ID": "1999-025AYF", "EPOCH": "2025-12-18T08:03:40.157280", "MEAN_MOTION": 13.9408223, "ECCENTRICITY": 0.03091633, "INCLINATION": 98.2558, "RA_OF_ASC_NODE": 18.9197, "ARG_OF_PERICENTER": 77.2706, "MEAN_ANOMALY": 348.8675, "EPHEMERIS_TYPE": 0, "CLASSIFICATION_TYPE": "U", "NORAD_CAT_ID": 30893, "ELEMENT_SET_NO": 999, "REV_AT_EPOCH": 94963, "BSTAR": 0.00050651987, "MEAN_MOTION_DOT": 9.62e-06, "MEAN_MOTION_DDOT": 0}, "tle": {"line1": "1 30893U 99025AYF 25352.33588145  .00000962  00000+0  50652-3 0  9999", "line2": "2 30893  98.2558  18.9197 0309163  77.2706 348.8675 13.94082230949632"}}, "geometry": {"type": "Point", "coordinates": [2.5335685595582365, 68.24595296240776]}}, {"type": "Feature", "properties": {"norad_id": 30895, "name": "FENGYUN 1C DEB", "group": "fengyun-1c-debris", "lat": 19.14920508160104, "lon": 63.35136470556718, "alt_km": 735.3707347691379, "timestamp": "2025-12-23T20:42:37.355326+00:00", "meta": {"OBJECT_NAME": "FENGYUN 1C DEB", "OBJECT_ID": "1999-025AYH", "EPOCH": "2025-12-23T03:58:41.835936", "MEAN_MOTION": 14.3156954, "ECCENTRICITY": 0.02182388, "INCLINATION": 98.7178, "RA_OF_ASC_NODE": 65.7051, "ARG_OF_PERICENTER": 93.589, "MEAN_ANOMALY": 297.3425, "EPHEMERIS_TYPE": 0, "CLASSIFICATION_TYPE": "U", "NORAD_CAT_ID": 30895, "ELEMENT_SET_NO": 999, "REV_AT_EPOCH": 97942, "BSTAR": 0.00027575961, "MEAN_MOTION_DOT": 9.04e-06, "MEAN_MOTION_DDOT": 0}, "tle": {"line1": "1 30895U 99025AYH 25357.16576199  .00000904  00000+0  27576-3 0  9998", "line2": "2 30895  98.7178  65.7051 0218238  93.5890 297.3425 14.31569540979420"}}, "geometry": {"type": "Point", "coordinates": [63.35136470556718, 19.14920508160104]}}, {"type": "Feature", "properties": {"norad_id": 30898, "name": "FENGYUN 1C DEB", "group": "fengyun-1c-debris", "lat": -45.763401403102165, "lon": 82.14855733876715, "alt_km": 526.3294836317973, "timestamp": "2025-12-23T20:42:37.355336+00:00", "meta": {"OBJECT_NAME": "FENGYUN 1C DEB", "OBJECT_ID": "1999-025AYL", "EPOCH": "2025-12-23T00:48:29.058624", "MEAN_MOTION": 15.23495494, "ECCENTRICITY": 0.0041564, "INCLINATION": 99.0249, "RA_OF_ASC_NODE": 270.5471, "ARG_OF_PERICENTER": 79.1364, "MEAN_ANOMALY": 281.4542, "EPHEMERIS_TYPE": 0, "CLASSIFICATION_TYPE": "U", "NORAD_CAT_ID": 30898, "ELEMENT_SET_NO": 999, "REV_AT_EPOCH": 66528, "BSTAR": 0.0035496817, "MEAN_MOTION_DOT": 0.00087612, "MEAN_MOTION_DDOT": 0}, "tle": {"line1": "1 30898U 99025AYL 25357.03366966  .00087612  00000+0  35497-2 0  9997", "line2": "2 30898  99.0249 270.5471 0041564  79.1364 281.4542 15.23495494665288"}}, "geometry": {"type": "Point", "coordinates": [82.14855733876715, -45.763401403102165]}}, {"type": "Feature", "properties": {"norad_id": 30899, "name": "FENGYUN 1C DEB", "group": "fengyun-1c-debris", "lat": 7.711498596062952, "lon": 77.29007075050124, "alt_km": 779.5823473366809, "timestamp": "2025-12-23T20:42:37.355346+00:00", "meta": {"OBJECT_NAME": "FENGYUN 1C DEB", "OBJECT_ID": "1999-025AYM", "EPOCH": "2025-12-22T12:39:57.136896", "MEAN_MOTION": 14.33729751, "ECCENTRICITY": 0.00306026, "INCLINATION": 99.1768, "RA_OF_ASC_NODE": 254.6206, "ARG_OF_PERICENTER": 262.1688, "MEAN_ANOMALY": 222.6158, "EPHEMERIS_TYPE": 0, "CLASSIFICATION_TYPE": "U", "NORAD_CAT_ID": 30899, "ELEMENT_SET_NO": 999, "REV_AT_EPOCH": 96795, "BSTAR": 0.0023049821, "MEAN_MOTION_DOT": 6.39e-05, "MEAN_MOTION_DDOT": 0}, "tle": {"line1": "1 30899U 99025AYM 25356.52774464  .00006390  00000+0  23050-2 0  9993", "line2": "2 30899  99.1768 254.6206 0030602 262.1688 222.6158 14.33729751967954"}}, "geometry": {"type": "Point", "coordinates": [77.29007075050124, 7.711498596062952]}}, {"type": "Feature", "properties": {"norad_id": 30903, "name": "FENGYUN 1C DEB", "group": "fengyun-1c-debris", "lat": -60.3106452956716, "lon": -99.46736910252088, "alt_km": 948.8570680684834, "timestamp": "2025-12-23T20:42:37.355356+00:00", "meta": {"OBJECT_NAME": "FENGYUN 1C DEB", "OBJECT_ID": "1999-025AYR", "EPOCH": "2025-12-19T10:28:48.530784", "MEAN_MOTION": 13.9760163, "ECCENTRICITY": 0.0096627, "INCLINATION": 99.3709, "RA_OF_ASC_NODE": 239.183, "ARG_OF_PERICENTER": 75.1557, "MEAN_ANOMALY": 286.0284, "EPHEMERIS_TYPE": 0, "CLASSIFICATION_TYPE": "U", "NORAD_CAT_ID": 30903, "ELEMENT_SET_NO": 999, "REV_AT_EPOCH": 68798, "BSTAR": -3.3732e-05, "MEAN_MOTION_DOT": -9.5e-07, "MEAN_MOTION_DDOT": 0}, "tle": {"line1": "1 30903U 99025AYR 25353.43667281 -.00000095  00000+0 -33732-4 0  9992", "line2": "2 30903  99.3709 239.1830 0096627  75.1557 286.0284 13.97601630687984"}}, "geometry": {"type": "Point", "coordinates": [-99.46736910252088, -60.3106452956716]}}, {"type": "Feature", "properties": {"norad_id": 30905, "name": "FENGYUN 1C DEB", "group": "fengyun-1c-debris", "lat": 21.124452389580973, "lon": 69.80329312901398, "alt_km": 796.2576953369007, "timestamp": "2025-12-23T20:42:37.355367+00:00", "meta": {"OBJECT_NAME": "FENGYUN 1C DEB", "OBJECT_ID": "1999-025AYT", "EPOCH": "2025-12-19T23:27:42.496416", "MEAN_MOTION": 14.17868833, "ECCENTRICITY": 0.00564293, "INCLINATION": 98.8891, "RA_OF_ASC_NODE": 69.3817, "ARG_OF_PERICENTER": 60.2635, "MEAN_ANOMALY": 300.4138, "EPHEMERIS_TYPE": 0, "CLASSIFICATION_TYPE": "U", "NORAD_CAT_ID": 30905, "ELEMENT_SET_NO": 999, "REV_AT_EPOCH": 96225, "BSTAR": 0.00069884909, "MEAN_MOTION_DOT": 1.406e-05, "MEAN_MOTION_DDOT": 0}, "tle": {"line1": "1 30905U 99025AYT 25353.97757519  .00001406  00000+0  69885-3 0  9999", "line2": "2 30905  98.8891  69.3817 0056429  60.2635 300.4138 14.17868833962256"}}, "geometry": {"type": "Point", "coordinates": [69.80329312901398, 21.124452389580973]}}, {"type": "Feature", "properties": {"norad_id": 30907, "name": "FENGYUN 1C DEB", "group": "fengyun-1c-debris", "lat": -46.98075000097553, "lon": -171.6509708601544, "alt_km": 868.9091054864984, "timestamp": "2025-12-23T20:42:37.355377+00:00", "meta": {"OBJECT_NAME": "FENGYUN 1C DEB", "OBJECT_ID": "1999-025AYV", "EPOCH": "2025-12-17T21:06:12.131712", "MEAN_MOTION": 14.15106189, "ECCENTRICITY": 0.00565923, "INCLINATION": 99.9513, "RA_OF_ASC_NODE": 12.5269, "ARG_OF_PERICENTER": 124.1859, "MEAN_ANOMALY": 236.4694, "EPHEMERIS_TYPE": 0, "CLASSIFICATION_TYPE": "U", "NORAD_CAT_ID": 30907, "ELEMENT_SET_NO": 999, "REV_AT_EPOCH": 1622, "BSTAR": 0.00072022378, "MEAN_MOTION_DOT": 1.366e-05, "MEAN_MOTION_DDOT": 0}, "tle": {"line1": "1 30907U 99025AYV 25351.87930708  .00001366  00000+0  72022-3 0  9993", "line2": "2 30907  99.9513  12.5269 0056592 124.1859 236.4694 14.15106189 16220"}}, "geometry": {"type": "Point", "coordinates": [-171.6509708601544, -46.98075000097553]}}, {"type": "Feature", "properties": {"norad_id": 30912, "name": "FENGYUN 1C DEB", "group": "fengyun-1c-debris", "lat": -74.27576525714234, "lon": -125.10181364888129, "alt_km": 637.7627057342388, "timestamp": "2025-12-23T20:42:37.355387+00:00", "meta": {"OBJECT_NAME": "FENGYUN 1C DEB", "OBJECT_ID": "1999-025AZA", "EPOCH": "2025-12-22T19:15:46.690272", "MEAN_MOTION": 14.89610691, "ECCENTRICITY": 0.00592701, "INCLINATION": 98.9955, "RA_OF_ASC_NODE": 199.4541, "ARG_OF_PERICENTER": 66.0213, "MEAN_ANOMALY": 294.7191, "EPHEMERIS_TYPE": 0, "CLASSIFICATION_TYPE": "U", "NORAD_CAT_ID": 30912, "ELEMENT_SET_NO": 999, "REV_AT_EPOCH": 99554, "BSTAR": 0.0013426196, "MEAN_MOTION_DOT": 0.00013201, "MEAN_MOTION_DDOT": 0}, "tle": {"line1": "1 30912U 99025AZA 25356.80262373  .00013201  00000+0  13426-2 0  9996", "line2": "2 30912  98.9955 199.4541 0059270  66.0213 294.7191 14.89610691995546"}}, "geometry": {"type": "Point", "coordinates": [-125.10181364888129, -74.27576525714234]}}, {"type": "Feature", "properties": {"norad_id": 30913, "name": "FENGYUN 1C DEB", "group": "fengyun-1c-debris", "lat": -50.054810045777515, "lon": 34.997927839373865, "alt_km": 916.4721801864971, "timestamp": "2025-12-23T20:42:37.355397+00:00", "meta": {"OBJECT_NAME": "FENGYUN 1C DEB", "OBJECT_ID": "1999-025AZB", "EPOCH": "2025-12-21T12:33:04.647744", "MEAN_MOTION": 14.04963939, "ECCENTRICITY": 0.0048807, "INCLINATION": 98.7448, "RA_OF_ASC_NODE": 22.1521, "ARG_OF_PERICENTER": 157.0422, "MEAN_ANOMALY": 203.2942, "EPHEMERIS_TYPE": 0, "CLASSIFICATION_TYPE": "U", "NORAD_CAT_ID": 30913, "ELEMENT_SET_NO": 999, "REV_AT_EPOCH": 96041, "BSTAR": 0.00052405, "MEAN_MOTION_DOT": 8.1e-06, "MEAN_MOTION_DDOT": 0}, "tle": {"line1": "1 30913U 99025AZB 25355.52297046  .00000810  00000+0  52405-3 0  9993", "line2": "2 30913  98.7448  22.1521 0048807 157.0422 203.2942 14.04963939960419"}}, "geometry": {"type": "Point", "coordinates": [34.997927839373865, -50.054810045777515]}}]}